start=new Date('2022-01-09T00:00:00.000Z').valueOf();
sats=[{"RA_OF_ASC_NODE":"238.6792","ECCENTRICITY":"0.00022070","FILE":"3267514","OBJECT_NAME":"STARLINK-2456","CLASSIFICATION_TYPE":"U","LAUNCH_DATE":"2021-03-11","MEAN_MOTION_DOT":"0.00000750","REV_AT_EPOCH":"4743","MEAN_ANOMALY":"294.3279","EPOCH":"2022-01-08T21:47:37.065696","EPHEMERIS_TYPE":"0","APOAPSIS":"548.773","ELEMENT_SET_NO":"999","ARG_OF_PERICENTER":"65.7940","OBJECT_ID":"2021-018BM","REF_FRAME":"TEME","PERIOD":"95.593","RCS_SIZE":"LARGE","SEMIMAJOR_AXIS":"6925.379","GP_ID":"193491196","SITE":"AFETR","MEAN_MOTION":"15.06389963","COUNTRY_CODE":"US","TIME_SYSTEM":"UTC","BSTAR":"0.00006924500000","TLE_LINE1":"1 47846U 21018BM  22008.90806789  .00000750  00000-0  69245-4 0  9992","DECAY_DATE":null,"CENTER_NAME":"EARTH","INCLINATION":"53.0540","MEAN_MOTION_DDOT":"0.0000000000000","OBJECT_TYPE":"PAYLOAD","MEAN_ELEMENT_THEORY":"SGP4","PERIAPSIS":"545.716","TLE_LINE2":"2 47846  53.0540 238.6792 0002207  65.7940 294.3279 15.06389963 47431","NORAD_CAT_ID":"47846"},{"RA_OF_ASC_NODE":"268.6635","ECCENTRICITY":"0.00020700","FILE":"3267514","OBJECT_NAME":"STARLINK-2258","CLASSIFICATION_TYPE":"U","LAUNCH_DATE":"2021-03-14","REV_AT_EPOCH":"4673","MEAN_MOTION_DOT":"0.00000974","MEAN_ANOMALY":"300.3992","EPOCH":"2022-01-08T21:54:14.122944","EPHEMERIS_TYPE":"0","APOAPSIS":"548.650","ELEMENT_SET_NO":"999","ARG_OF_PERICENTER":"59.7201","OBJECT_ID":"2021-021A","REF_FRAME":"TEME","RCS_SIZE":"LARGE","PERIOD":"95.592","SEMIMAJOR_AXIS":"6925.351","GP_ID":"193490195","SITE":"AFETR","MEAN_MOTION":"15.06399163","COUNTRY_CODE":"US","TIME_SYSTEM":"UTC","BSTAR":"0.00008431000000","TLE_LINE1":"1 47860U 21021A   22008.91266346  .00000974  00000-0  84310-4 0  9990","DECAY_DATE":null,"CENTER_NAME":"EARTH","INCLINATION":"53.0551","MEAN_MOTION_DDOT":"0.0000000000000","MEAN_ELEMENT_THEORY":"SGP4","OBJECT_TYPE":"PAYLOAD","PERIAPSIS":"545.783","TLE_LINE2":"2 47860  53.0551 268.6635 0002070  59.7201 300.3992 15.06399163 46734","NORAD_CAT_ID":"47860"},{"DECAY_DATE":null,"CENTER_NAME":"EARTH","INCLINATION":"53.0545","MEAN_MOTION_DDOT":"0.0000000000000","MEAN_ELEMENT_THEORY":"SGP4","OBJECT_TYPE":"PAYLOAD","PERIAPSIS":"545.666","TLE_LINE2":"2 47861  53.0545 253.8817 0002265  62.6799 297.4420 15.06393127 47048","NORAD_CAT_ID":"47861","SEMIMAJOR_AXIS":"6925.370","GP_ID":"193490947","SITE":"AFETR","MEAN_MOTION":"15.06393127","COUNTRY_CODE":"US","TIME_SYSTEM":"UTC","BSTAR":"0.00007855500000","TLE_LINE1":"1 47861U 21021B   22008.86429248  .00000888  00000-0  78555-4 0  9995","MEAN_ANOMALY":"297.4420","EPOCH":"2022-01-08T20:44:34.870272","EPHEMERIS_TYPE":"0","APOAPSIS":"548.803","ELEMENT_SET_NO":"999","ARG_OF_PERICENTER":"62.6799","OBJECT_ID":"2021-021B","REF_FRAME":"TEME","RCS_SIZE":"LARGE","PERIOD":"95.593","RA_OF_ASC_NODE":"253.8817","ECCENTRICITY":"0.00022650","FILE":"3267514","OBJECT_NAME":"STARLINK-2280","CLASSIFICATION_TYPE":"U","LAUNCH_DATE":"2021-03-14","MEAN_MOTION_DOT":"0.00000888","REV_AT_EPOCH":"4704"},{"LAUNCH_DATE":"2021-03-14","MEAN_MOTION_DOT":"0.00001018","REV_AT_EPOCH":"4711","FILE":"3267514","OBJECT_NAME":"STARLINK-2291","CLASSIFICATION_TYPE":"U","RA_OF_ASC_NODE":"248.6684","ECCENTRICITY":"0.00025520","REF_FRAME":"TEME","RCS_SIZE":"LARGE","PERIOD":"95.592","OBJECT_ID":"2021-021C","ARG_OF_PERICENTER":"58.4626","EPHEMERIS_TYPE":"0","APOAPSIS":"548.989","ELEMENT_SET_NO":"999","EPOCH":"2022-01-08T21:51:35.166816","MEAN_ANOMALY":"301.6612","TIME_SYSTEM":"UTC","BSTAR":"0.00008725000000","TLE_LINE1":"1 47862U 21021C   22008.91082369  .00001018  00000-0  87250-4 0  9999","COUNTRY_CODE":"US","MEAN_MOTION":"15.06397425","SITE":"AFETR","GP_ID":"193491698","SEMIMAJOR_AXIS":"6925.356","TLE_LINE2":"2 47862  53.0556 248.6684 0002552  58.4626 301.6612 15.06397425 47110","NORAD_CAT_ID":"47862","PERIAPSIS":"545.454","MEAN_ELEMENT_THEORY":"SGP4","OBJECT_TYPE":"PAYLOAD","INCLINATION":"53.0556","MEAN_MOTION_DDOT":"0.0000000000000","CENTER_NAME":"EARTH","DECAY_DATE":null},{"PERIAPSIS":"545.880","NORAD_CAT_ID":"47863","TLE_LINE2":"2 47863  53.0552 258.8495 0001965  62.2669 297.8519 15.06391164 46976","CENTER_NAME":"EARTH","DECAY_DATE":null,"OBJECT_TYPE":"PAYLOAD","MEAN_ELEMENT_THEORY":"SGP4","MEAN_MOTION_DDOT":"0.0000000000000","INCLINATION":"53.0552","COUNTRY_CODE":"US","BSTAR":"0.00009721300000","TLE_LINE1":"1 47863U 21021D   22008.86936298  .00001166  00000-0  97213-4 0  9997","TIME_SYSTEM":"UTC","GP_ID":"193490446","SITE":"AFETR","SEMIMAJOR_AXIS":"6925.376","MEAN_MOTION":"15.06391164","OBJECT_ID":"2021-021D","ARG_OF_PERICENTER":"62.2669","RCS_SIZE":"LARGE","PERIOD":"95.593","REF_FRAME":"TEME","MEAN_ANOMALY":"297.8519","ELEMENT_SET_NO":"999","EPHEMERIS_TYPE":"0","APOAPSIS":"548.601","EPOCH":"2022-01-08T20:51:52.961472","MEAN_MOTION_DOT":"0.00001166","REV_AT_EPOCH":"4697","LAUNCH_DATE":"2021-03-14","ECCENTRICITY":"0.00019650","RA_OF_ASC_NODE":"258.8495","CLASSIFICATION_TYPE":"U","FILE":"3267514","OBJECT_NAME":"STARLINK-2293"},{"ECCENTRICITY":"0.00020690","RA_OF_ASC_NODE":"248.6740","CLASSIFICATION_TYPE":"U","FILE":"3267514","OBJECT_NAME":"STARLINK-2304","MEAN_MOTION_DOT":"0.00000966","REV_AT_EPOCH":"4709","LAUNCH_DATE":"2021-03-14","MEAN_ANOMALY":"295.4713","EPOCH":"2022-01-08T21:50:13.497216","ELEMENT_SET_NO":"999","EPHEMERIS_TYPE":"0","APOAPSIS":"548.658","ARG_OF_PERICENTER":"64.6491","OBJECT_ID":"2021-021E","PERIOD":"95.592","RCS_SIZE":"LARGE","REF_FRAME":"TEME","SEMIMAJOR_AXIS":"6925.360","SITE":"AFETR","GP_ID":"193490696","MEAN_MOTION":"15.06396343","COUNTRY_CODE":"US","BSTAR":"0.00008376500000","TLE_LINE1":"1 47864U 21021E   22008.90987844  .00000966  00000-0  83765-4 0  9990","TIME_SYSTEM":"UTC","DECAY_DATE":null,"CENTER_NAME":"EARTH","INCLINATION":"53.0558","MEAN_MOTION_DDOT":"0.0000000000000","OBJECT_TYPE":"PAYLOAD","MEAN_ELEMENT_THEORY":"SGP4","PERIAPSIS":"545.792","NORAD_CAT_ID":"47864","TLE_LINE2":"2 47864  53.0558 248.6740 0002069  64.6491 295.4713 15.06396343 47096"},{"CENTER_NAME":"EARTH","DECAY_DATE":null,"OBJECT_TYPE":"PAYLOAD","MEAN_ELEMENT_THEORY":"SGP4","MEAN_MOTION_DDOT":"0.0000000000000","INCLINATION":"53.0548","PERIAPSIS":"545.852","NORAD_CAT_ID":"47865","TLE_LINE2":"2 47865  53.0548 258.6511 0001987  64.2186 295.9008 15.06395264 47080","GP_ID":"193491448","SITE":"AFETR","SEMIMAJOR_AXIS":"6925.363","MEAN_MOTION":"15.06395264","COUNTRY_CODE":"US","BSTAR":"0.00006959400000","TLE_LINE1":"1 47865U 21021F   22008.90990039  .00000755  00000-0  69594-4 0  9991","TIME_SYSTEM":"UTC","MEAN_ANOMALY":"295.9008","ELEMENT_SET_NO":"999","APOAPSIS":"548.604","EPHEMERIS_TYPE":"0","EPOCH":"2022-01-08T21:50:15.393696","OBJECT_ID":"2021-021F","ARG_OF_PERICENTER":"64.2186","RCS_SIZE":"LARGE","PERIOD":"95.592","REF_FRAME":"TEME","ECCENTRICITY":"0.00019870","RA_OF_ASC_NODE":"258.6511","CLASSIFICATION_TYPE":"U","FILE":"3267514","OBJECT_NAME":"STARLINK-2310","MEAN_MOTION_DOT":"0.00000755","REV_AT_EPOCH":"4708","LAUNCH_DATE":"2021-03-14"},{"OBJECT_NAME":"STARLINK-2320","FILE":"3267514","CLASSIFICATION_TYPE":"U","RA_OF_ASC_NODE":"258.9457","ECCENTRICITY":"0.00059120","LAUNCH_DATE":"2021-03-14","REV_AT_EPOCH":"4712","MEAN_MOTION_DOT":"0.00000595","EPOCH":"2022-01-08T20:19:59.225664","EPHEMERIS_TYPE":"0","APOAPSIS":"551.298","ELEMENT_SET_NO":"999","MEAN_ANOMALY":"215.6934","REF_FRAME":"TEME","RCS_SIZE":"LARGE","PERIOD":"95.592","ARG_OF_PERICENTER":"144.4450","OBJECT_ID":"2021-021G","MEAN_MOTION":"15.06403250","SEMIMAJOR_AXIS":"6925.339","GP_ID":"193491198","SITE":"AFETR","TIME_SYSTEM":"UTC","BSTAR":"0.00005895300000","TLE_LINE1":"1 47866U 21021G   22008.84721326  .00000595  00000-0  58953-4 0  9995","COUNTRY_CODE":"US","MEAN_MOTION_DDOT":"0.0000000000000","INCLINATION":"53.0556","MEAN_ELEMENT_THEORY":"SGP4","OBJECT_TYPE":"PAYLOAD","DECAY_DATE":null,"CENTER_NAME":"EARTH","TLE_LINE2":"2 47866  53.0556 258.9457 0005912 144.4450 215.6934 15.06403250 47126","NORAD_CAT_ID":"47866","PERIAPSIS":"543.109"},{"TLE_LINE2":"2 47867  53.0545 248.6674 0002624  58.3734 301.7511 15.06405343 47074","NORAD_CAT_ID":"47867","PERIAPSIS":"545.380","MEAN_ELEMENT_THEORY":"SGP4","OBJECT_TYPE":"PAYLOAD","MEAN_MOTION_DDOT":"0.0000000000000","INCLINATION":"53.0545","CENTER_NAME":"EARTH","DECAY_DATE":null,"TIME_SYSTEM":"UTC","TLE_LINE1":"1 47867U 21021H   22008.90712436  .00001584  00000-0  12524-3 0  9997","BSTAR":"0.00012524000000","COUNTRY_CODE":"US","MEAN_MOTION":"15.06405343","SITE":"AFETR","GP_ID":"193489946","SEMIMAJOR_AXIS":"6925.332","REF_FRAME":"TEME","PERIOD":"95.592","RCS_SIZE":"LARGE","OBJECT_ID":"2021-021H","ARG_OF_PERICENTER":"58.3734","EPHEMERIS_TYPE":"0","APOAPSIS":"549.014","ELEMENT_SET_NO":"999","EPOCH":"2022-01-08T21:46:15.544704","MEAN_ANOMALY":"301.7511","LAUNCH_DATE":"2021-03-14","MEAN_MOTION_DOT":"0.00001584","REV_AT_EPOCH":"4707","OBJECT_NAME":"STARLINK-2321","FILE":"3267514","CLASSIFICATION_TYPE":"U","RA_OF_ASC_NODE":"248.6674","ECCENTRICITY":"0.00026240"},{"MEAN_MOTION_DDOT":"0.0000000000000","INCLINATION":"53.0546","MEAN_ELEMENT_THEORY":"SGP4","OBJECT_TYPE":"PAYLOAD","DECAY_DATE":null,"CENTER_NAME":"EARTH","NORAD_CAT_ID":"47868","TLE_LINE2":"2 47868  53.0546 198.9886 0002845  83.7455 276.3858 15.06388286 47814","PERIAPSIS":"545.279","MEAN_MOTION":"15.06388286","SEMIMAJOR_AXIS":"6925.384","GP_ID":"193490196","SITE":"AFETR","BSTAR":"0.00003640700000","TLE_LINE1":"1 47868U 21021J   22008.83435289  .00000260  00000-0  36407-4 0  9995","TIME_SYSTEM":"UTC","COUNTRY_CODE":"US","EPOCH":"2022-01-08T20:01:28.089696","ELEMENT_SET_NO":"999","APOAPSIS":"549.220","EPHEMERIS_TYPE":"0","MEAN_ANOMALY":"276.3858","RCS_SIZE":"LARGE","PERIOD":"95.593","REF_FRAME":"TEME","ARG_OF_PERICENTER":"83.7455","OBJECT_ID":"2021-021J","CLASSIFICATION_TYPE":"U","FILE":"3267514","OBJECT_NAME":"STARLINK-2323","ECCENTRICITY":"0.00028450","RA_OF_ASC_NODE":"198.9886","REV_AT_EPOCH":"4781","MEAN_MOTION_DOT":"0.00000260","LAUNCH_DATE":"2021-03-14"}];
